{
  "person": [
    {
      "fname": "Tyetha",
      "lname": "Carpenter",
      "tel": "(517)563-1049",
      "address": "7817 Lacus St",
      "city": "Corwith",
      "state": "MA",
      "zip": 86403
    },
    {
      "fname": "Joel",
      "lname": "Schoenbauer",
      "tel": "(552)625-6776",
      "address": "5962 Aliquam Rd",
      "city": "Billerica",
      "state": "NV",
      "zip": 75394
    },
    {
      "fname": "Kamaniee",
      "lname": "Feger",
      "tel": "(376)814-4301",
      "address": "6728 Pharetra Ct",
      "city": "Cranford",
      "state": "OR",
      "zip": 55713
    },
    {
      "fname": "Jawanda",
      "lname": "Wild",
      "tel": "(583)649-9216",
      "address": "3879 Tincidunt Ave",
      "city": "Houston",
      "state": "WI",
      "zip": 76485
    },
    {
      "fname": "Cathy",
      "lname": "Absalom",
      "tel": "(287)592-9082",
      "address": "4282 Convallis St",
      "city": "Norwalk",
      "state": "ME",
      "zip": 10320
    },
    {
      "fname": "Thomas",
      "lname": "Renbarger",
      "tel": "(363)519-4773",
      "address": "2450 Pharetra Ln",
      "city": "Mooresville",
      "state": "TX",
      "zip": 22396
    },
    {
      "fname": "Sanjay",
      "lname": "Elmuccio",
      "tel": "(666)089-4730",
      "address": "1785 Vitae Dr",
      "city": "Birmingham",
      "state": "SC",
      "zip": 90991
    },
    {
      "fname": "Deitric",
      "lname": "Linden",
      "tel": "(712)023-1923",
      "address": "7001 Sapien St",
      "city": "Sandwich",
      "state": "ID",
      "zip": 13005
    },
    {
      "fname": "Nakia",
      "lname": "Guanzon",
      "tel": "(253)770-2391",
      "address": "9623 Dolor Dr",
      "city": "Cincinnati",
      "state": "NY",
      "zip": 16428
    },
    {
      "fname": "Stacie",
      "lname": "Braswell",
      "tel": "(798)919-1397",
      "address": "889 Molestie St",
      "city": "Whitehouse",
      "state": "NY",
      "zip": 71481
    }
  ]
}